SPACEMOBILE-003         
1 61045U 24163A   26177.81235899  .00001689  00000+0  90246-4 0  9998
2 61045  52.9744 265.1828 0005991 141.0621 219.0806 15.20822722 99230
SPACEMOBILE-005         
1 61046U 24163B   26187.12744171 -.00001786  00000+0 -65150-4 0  9998
2 61046  52.9791 222.2813 0009133 166.4225 193.7017 15.20814784100643
SPACEMOBILE-001         
1 61047U 24163C   26186.79743904  .00002578  00000+0  12997-3 0  9992
2 61047  52.9763 223.5137 0007400 162.9242 197.2003 15.20827435100596
SPACEMOBILE-002         
1 61048U 24163D   26186.58436705  .00009940  00000+0  45811-3 0  9999
2 61048  52.9742 224.5396 0006239 164.5958 195.5228 15.20873419100563
SPACEMOBILE-004         
1 61049U 24163E   26186.89536546  .00015654  00000+0  71381-3 0  9998
2 61049  52.9649 222.8932 0007122 193.0409 167.0402 15.20802887100612
SPACEMOBILE-006         
1 67232U 25309A   26187.12895901  .00001618  00000+0  92409-4 0  9991
2 67232  52.9956 244.8687 0010702 185.6932 174.3942 15.18641469 29478
SPACEMOBILE-008         
1 69589U 26139A   26187.16790571  .00000602  00000+0  50838-4 0  9993
2 69589  52.9938 176.3923 0004604  34.4337 325.6952 15.12792935  2855
SPACEMOBILE-009         
1 69590U 26139B   26187.16923104  .00000617  00000+0  51860-4 0  9997
2 69590  52.9928 176.3963 0004820  29.5652 330.5611 15.12686326  2858
SPACEMOBILE-010         
1 69591U 26139C   26187.17133663  .00000632  00000+0  52916-4 0  9992
2 69591  52.9932 176.4117 0004700  20.5529 339.5651 15.12517431  2861
